{"type": "FeatureCollection", "features": [ {"type": "Feature", "properties": {"norad_id": 37216, "name": "COSMO-SKYMED 4", "group": "resource", "lat": 19.47535564599036, "lon": 163.167791415266, "alt_km": 622.1535968876533, "timestamp": "2025-12-10T14:53:36.779442+00:00", "meta": {"OBJECT_NAME": "COSMO-SKYMED 4", "OBJECT_ID": "2010-060A", "EPOCH": "2025-12-10T06:42:13.953888", "MEAN_MOTION": 14.82164611, "ECCENTRICITY": 0.00014225, "INCLINATION": 97.8806, "RA_OF_ASC_NODE": 165.6394, "ARG_OF_PERICENTER": 79.0392, "MEAN_ANOMALY": 281.0981, "EPHEMERIS_TYPE": 0, "CLASSIFICATION_TYPE": "U", "NORAD_CAT_ID": 37216, "ELEMENT_SET_NO": 999, "REV_AT_EPOCH": 81658, "BSTAR": 0.00014054449, "MEAN_MOTION_DOT": 1.067e-05, "MEAN_MOTION_DDOT": 0}, "tle": {"line1": "1 37216U 10060A   25344.27932817  .00001067  00000+0  14054-3 0  9993", "line2": "2 37216  97.8806 165.6394 0001422  79.0392 281.0981 14.82164611816583"}}, "geometry": {"type": "Point", "coordinates": [163.167791415266, 19.47535564599036]}}, {"type": "Feature", "properties": {"norad_id": 37387, "name": "RESOURCESAT-2", "group": "resource", "lat": 80.37377917272715, "lon": -17.60941164969118, "alt_km": 808.8197898698054, "timestamp": "2025-12-10T14:53:36.779451+00:00", "meta": {"OBJECT_NAME": "RESOURCESAT-2", "OBJECT_ID": "2011-015A", "EPOCH": "2025-12-10T07:44:02.118336", "MEAN_MOTION": 14.21595723, "ECCENTRICITY": 0.0006544, "INCLINATION": 98.788, "RA_OF_ASC_NODE": 47.8849, "ARG_OF_PERICENTER": 48.857, "MEAN_ANOMALY": 311.3171, "EPHEMERIS_TYPE": 0, "CLASSIFICATION_TYPE": "U", "NORAD_CAT_ID": 37387, "ELEMENT_SET_NO": 999, "REV_AT_EPOCH": 75934, "BSTAR": 0.00012782619, "MEAN_MOTION_DOT": 2.36e-06, "MEAN_MOTION_DDOT": 0}, "tle": {"line1": "1 37387U 11015A   25344.32224674  .00000236  00000+0  12783-3 0  9998", "line2": "2 37387  98.7880  47.8849 0006544  48.8570 311.3171 14.21595723759345"}}, "geometry": {"type": "Point", "coordinates": [-17.60941164969118, 80.37377917272715]}}, {"type": "Feature", "properties": {"norad_id": 37781, "name": "HAIYANG-2A", "group": "resource", "lat": 76.61293500791928, "lon": -150.67685621885903, "alt_km": 959.5551353752908, "timestamp": "2025-12-10T14:53:36.779460+00:00", "meta": {"OBJECT_NAME": "HAIYANG-2A", "OBJECT_ID": "2011-043A", "EPOCH": "2025-12-10T07:26:46.468320", "MEAN_MOTION": 13.78835473, "ECCENTRICITY": 0.00016771, "INCLINATION": 99.3378, "RA_OF_ASC_NODE": 345.2817, "ARG_OF_PERICENTER": 85.6381, "MEAN_ANOMALY": 274.4962, "EPHEMERIS_TYPE": 0, "CLASSIFICATION_TYPE": "U", "NORAD_CAT_ID": 37781, "ELEMENT_SET_NO": 999, "REV_AT_EPOCH": 72065, "BSTAR": 0.00028269748, "MEAN_MOTION_DOT": 2.44e-06, "MEAN_MOTION_DDOT": 0}, "tle": {"line1": "1 37781U 11043A   25344.31026005  .00000244  00000+0  28270-3 0  9991", "line2": "2 37781  99.3378 345.2817 0001677  85.6381 274.4962 13.78835473720652"}}, "geometry": {"type": "Point", "coordinates": [-150.67685621885903, 76.61293500791928]}}, {"type": "Feature", "properties": {"norad_id": 37791, "name": "RASAT", "group": "resource", "lat": -75.45798835848704, "lon": -139.22593939546718, "alt_km": 690.4304576926115, "timestamp": "2025-12-10T14:53:36.779469+00:00", "meta": {"OBJECT_NAME": "RASAT", "OBJECT_ID": "2011-044D", "EPOCH": "2025-12-10T07:30:21.116160", "MEAN_MOTION": 14.67904707, "ECCENTRICITY": 0.00219211, "INCLINATION": 98.0651, "RA_OF_ASC_NODE": 73.6065, "ARG_OF_PERICENTER": 72.2268, "MEAN_ANOMALY": 359.9494, "EPHEMERIS_TYPE": 0, "CLASSIFICATION_TYPE": "U", "NORAD_CAT_ID": 37791, "ELEMENT_SET_NO": 999, "REV_AT_EPOCH": 76547, "BSTAR": 0.0002039063, "MEAN_MOTION_DOT": 1.121e-05, "MEAN_MOTION_DDOT": 0}, "tle": {"line1": "1 37791U 11044D   25344.31274440  .00001121  00000+0  20391-3 0  9992", "line2": "2 37791  98.0651  73.6065 0021921  72.2268 359.9494 14.67904707765474"}}, "geometry": {"type": "Point", "coordinates": [-139.22593939546718, -75.45798835848704]}}, {"type": "Feature", "properties": {"norad_id": 37841, "name": "SRMSAT", "group": "resource", "lat": 19.792028700788634, "lon": -156.9385427035433, "alt_km": 856.5379222271904, "timestamp": "2025-12-10T14:53:36.779478+00:00", "meta": {"OBJECT_NAME": "SRMSAT", "OBJECT_ID": "2011-058D", "EPOCH": "2025-12-09T18:16:26.313888", "MEAN_MOTION": 14.11510038, "ECCENTRICITY": 0.00117125, "INCLINATION": 19.9704, "RA_OF_ASC_NODE": 125.9768, "ARG_OF_PERICENTER": 280.4028, "MEAN_ANOMALY": 107.1239, "EPHEMERIS_TYPE": 0, "CLASSIFICATION_TYPE": "U", "NORAD_CAT_ID": 37841, "ELEMENT_SET_NO": 999, "REV_AT_EPOCH": 73102, "BSTAR": 0.00014938322, "MEAN_MOTION_DOT": 5.4e-06, "MEAN_MOTION_DDOT": 0}, "tle": {"line1": "1 37841U 11058D   25343.76141567  .00000540  00000+0  14938-3 0  9998", "line2": "2 37841  19.9704 125.9768 0011712 280.4028 107.1239 14.11510038731029"}}, "geometry": {"type": "Point", "coordinates": [-156.9385427035433, 19.792028700788634]}}, {"type": "Feature", "properties": {"norad_id": 38012, "name": "PLEIADES 1A", "group": "resource", "lat": 54.88701607355062, "lon": -110.77100146789994, "alt_km": 692.0244241364453, "timestamp": "2025-12-10T14:53:36.779488+00:00", "meta": {"OBJECT_NAME": "PLEIADES 1A", "OBJECT_ID": "2011-076F", "EPOCH": "2025-12-10T08:05:10.383936", "MEAN_MOTION": 14.5855801, "ECCENTRICITY": 0.00013383, "INCLINATION": 98.1822, "RA_OF_ASC_NODE": 57.1424, "ARG_OF_PERICENTER": 73.8466, "MEAN_ANOMALY": 1.8939, "EPHEMERIS_TYPE": 0, "CLASSIFICATION_TYPE": "U", "NORAD_CAT_ID": 38012, "ELEMENT_SET_NO": 999, "REV_AT_EPOCH": 74446, "BSTAR": 0.00016012561, "MEAN_MOTION_DOT": 6.99e-06, "MEAN_MOTION_DDOT": 0}, "tle": {"line1": "1 38012U 11076F   25344.33692574  .00000699  00000+0  16013-3 0  9993", "line2": "2 38012  98.1822  57.1424 0001338  73.8466   1.8939 14.58558010744460"}}, "geometry": {"type": "Point", "coordinates": [-110.77100146789994, 54.88701607355062]}}, {"type": "Feature", "properties": {"norad_id": 38038, "name": "ZIYUAN 1-02C (ZY 1-02C)", "group": "resource", "lat": -8.578825665773268, "lon": -130.60928681671194, "alt_km": 765.5046402769822, "timestamp": "2025-12-10T14:53:36.779497+00:00", "meta": {"OBJECT_NAME": "ZIYUAN 1-02C (ZY 1-02C)", "OBJECT_ID": "2011-079A", "EPOCH": "2025-12-10T07:41:54.209184", "MEAN_MOTION": 14.38007883, "ECCENTRICITY": 0.00070465, "INCLINATION": 98.4332, "RA_OF_ASC_NODE": 50.3789, "ARG_OF_PERICENTER": 144.7049, "MEAN_ANOMALY": 292.6845, "EPHEMERIS_TYPE": 0, "CLASSIFICATION_TYPE": "U", "NORAD_CAT_ID": 38038, "ELEMENT_SET_NO": 999, "REV_AT_EPOCH": 73206, "BSTAR": 0.00027247027, "MEAN_MOTION_DOT": 7.81e-06, "MEAN_MOTION_DDOT": 0}, "tle": {"line1": "1 38038U 11079A   25344.32076631  .00000781  00000+0  27247-3 0  9996", "line2": "2 38038  98.4332  50.3789 0007046 144.7049 292.6845 14.38007883732067"}}, "geometry": {"type": "Point", "coordinates": [-130.60928681671194, -8.578825665773268]}}, {"type": "Feature", "properties": {"norad_id": 38046, "name": "ZIYUAN 3-1 (ZY 3-1)", "group": "resource", "lat": 69.8163694723208, "lon": 30.94632483375151, "alt_km": 357.03492751462454, "timestamp": "2025-12-10T14:53:36.779506+00:00", "meta": {"OBJECT_NAME": "ZIYUAN 3-1 (ZY 3-1)", "OBJECT_ID": "2012-001A", "EPOCH": "2025-12-10T06:56:02.057280", "MEAN_MOTION": 15.68069403, "ECCENTRICITY": 0.00018607, "INCLINATION": 97.1753, "RA_OF_ASC_NODE": 50.6494, "ARG_OF_PERICENTER": 5.125, "MEAN_ANOMALY": 355.003, "EPHEMERIS_TYPE": 0, "CLASSIFICATION_TYPE": "U", "NORAD_CAT_ID": 38046, "ELEMENT_SET_NO": 999, "REV_AT_EPOCH": 77458, "BSTAR": 0.00086691115, "MEAN_MOTION_DOT": 0.00096952, "MEAN_MOTION_DDOT": 0}, "tle": {"line1": "1 38046U 12001A   25344.28891270  .00096952  00000+0  86691-3 0  9993", "line2": "2 38046  97.1753  50.6494 0001860   5.1250 355.0030 15.68069403774580"}}, "geometry": {"type": "Point", "coordinates": [30.94632483375151, 69.8163694723208]}}, {"type": "Feature", "properties": {"norad_id": 38338, "name": "ARIRANG-3 (KOMPSAT-3)", "group": "resource", "lat": -2.508988313563974, "lon": -60.438066627667524, "alt_km": 687.1411204239885, "timestamp": "2025-12-10T14:53:36.779515+00:00", "meta": {"OBJECT_NAME": "ARIRANG-3 (KOMPSAT-3)", "OBJECT_ID": "2012-025B", "EPOCH": "2025-12-10T06:41:26.426112", "MEAN_MOTION": 14.61707297, "ECCENTRICITY": 0.00055311, "INCLINATION": 98.3318, "RA_OF_ASC_NODE": 298.8497, "ARG_OF_PERICENTER": 346.983, "MEAN_ANOMALY": 13.1227, "EPHEMERIS_TYPE": 0, "CLASSIFICATION_TYPE": "U", "NORAD_CAT_ID": 38338, "ELEMENT_SET_NO": 999, "REV_AT_EPOCH": 72374, "BSTAR": 0.0001977466, "MEAN_MOTION_DOT": 9.37e-06, "MEAN_MOTION_DDOT": 0}, "tle": {"line1": "1 38338U 12025B   25344.27877808  .00000937  00000+0  19775-3 0  9990", "line2": "2 38338  98.3318 298.8497 0005531 346.9830  13.1227 14.61707297723746"}}, "geometry": {"type": "Point", "coordinates": [-60.438066627667524, -2.508988313563974]}}, {"type": "Feature", "properties": {"norad_id": 38709, "name": "EXACTVIEW-1 (ADS-1B)", "group": "resource", "lat": -79.48172220480079, "lon": 151.18576239538913, "alt_km": 815.4178717939549, "timestamp": "2025-12-10T14:53:36.779524+00:00", "meta": {"OBJECT_NAME": "EXACTVIEW-1 (ADS-1B)", "OBJECT_ID": "2012-039C", "EPOCH": "2025-12-10T06:51:45.472608", "MEAN_MOTION": 14.24906576, "ECCENTRICITY": 0.00107963, "INCLINATION": 98.9635, "RA_OF_ASC_NODE": 92.6245, "ARG_OF_PERICENTER": 1.3591, "MEAN_ANOMALY": 358.7615, "EPHEMERIS_TYPE": 0, "CLASSIFICATION_TYPE": "U", "NORAD_CAT_ID": 38709, "ELEMENT_SET_NO": 999, "REV_AT_EPOCH": 69580, "BSTAR": 0.00014505122, "MEAN_MOTION_DOT": 2.93e-06, "MEAN_MOTION_DDOT": 0}, "tle": {"line1": "1 38709U 12039C   25344.28594297  .00000293  00000+0  14505-3 0  9997", "line2": "2 38709  98.9635  92.6245 0010796   1.3591 358.7615 14.24906576695806"}}, "geometry": {"type": "Point", "coordinates": [151.18576239538913, -79.48172220480079]}}]}